H1 CPF 01  gfz 2021 04 05 12  5952 terrasarx 
H2 0702601  6201 31698    2021 04 05 12 59 42 2021 04 10 00 00 42   120 1 1  0 0 0
H9
10 0 59309  63342.000000  0    6504062.621    999754.539  -2048680.302
10 0 59309  63462.000000  0    6737577.056    850617.386  -1169718.464
10 0 59309  63582.000000  0    6850688.893    683595.633   -270190.082
10 0 59309  63702.000000  0    6841076.919    503724.748    634091.393
10 0 59309  63822.000000  0    6708674.813    316291.587   1527209.942
10 0 59309  63942.000000  0    6455680.236    126700.556   2393436.304
10 0 59309  64062.000000  0    6086516.359    -59661.784   3217514.462
10 0 59309  64182.000000  0    5607748.873   -237561.530   3984937.616
10 0 59309  64302.000000  0    5027960.591   -402046.089   4682207.457
10 0 59309  64422.000000  0    4357589.030   -548565.765   5297074.502
10 0 59309  64542.000000  0    3608726.701   -673084.522   5818752.169
10 0 59309  64662.000000  0    2794893.948   -772176.403   6238101.476
10 0 59309  64782.000000  0    1930787.869   -843107.150   6547785.596
10 0 59309  64902.000000  0    1032012.672   -883899.080   6742393.139
10 0 59309  65022.000000  0     114794.042   -893378.108   6818527.401
10 0 59309  65142.000000  0    -804314.481   -871201.736   6774860.551
10 0 59309  65262.000000  0   -1708729.053   -817868.257   6612154.526
10 0 59309  65382.000000  0   -2582133.142   -734706.088   6333248.171
10 0 59309  65502.000000  0   -3408770.618   -623843.925   5943011.636
10 0 59309  65622.000000  0   -4173732.067   -488162.071   5448267.938
10 0 59309  65742.000000  0   -4863229.042   -331226.267   4857680.290
10 0 59309  65862.000000  0   -5464849.891   -157204.601   4181605.436
10 0 59309  65982.000000  0   -5967791.824     29230.751   3431915.593
10 0 59309  66102.000000  0   -6363063.939    223015.132   2621792.262
10 0 59309  66222.000000  0   -6643658.576    418814.340   1765494.262
10 0 59309  66342.000000  0   -6804684.816    611155.327    878102.707
10 0 59309  66462.000000  0   -6843460.535    794561.318    -24751.604
10 0 59309  66582.000000  0   -6759559.597    963688.537   -927172.629
10 0 59309  66702.000000  0   -6554812.335   1113460.462  -1813288.057
10 0 59309  66822.000000  0   -6233261.906   1239196.048  -2667535.193
10 0 59309  66942.000000  0   -5801078.126   1336730.292  -3474941.759
10 0 59309  67062.000000  0   -5266426.239   1402521.677  -4221392.423
10 0 59309  67182.000000  0   -4639299.591   1433745.026  -4893873.995
10 0 59309  67302.000000  0   -3931320.466   1428367.970  -5480697.078
10 0 59309  67422.000000  0   -3155514.762   1385209.422  -5971690.213
10 0 59309  67542.000000  0   -2326065.971   1303978.692  -6358365.812
10 0 59309  67662.000000  0   -1458052.488   1185295.666  -6634055.798
10 0 59309  67782.000000  0    -567173.397   1030691.733  -6794014.632
10 0 59309  67902.000000  0     330530.509    842591.019  -6835491.038
10 0 59309  68022.000000  0    1218957.385    624273.390  -6757771.018
10 0 59309  68142.000000  0    2082227.393    379818.319  -6562190.847
10 0 59309  68262.000000  0    2904960.524    114030.891  -6252115.904
10 0 59309  68382.000000  0    3672546.530   -167648.530  -5832889.061
10 0 59309  68502.000000  0    4371401.778   -459251.028  -5311746.822
10 0 59309  68622.000000  0    4989210.904   -754399.469  -4697706.692
10 0 59309  68742.000000  0    5515150.655  -1046441.697  -4001422.589
10 0 59309  68862.000000  0    5940088.348  -1328593.405  -3235009.441
10 0 59309  68982.000000  0    6256751.597  -1594088.292  -2411839.670
10 0 59309  69102.000000  0    6459865.126  -1836332.311  -1546313.750
10 0 59309  69222.000000  0    6546250.087  -2049057.955   -653608.160
10 0 59309  69342.000000  0    6514883.110  -2226474.611    250594.314
10 0 59309  69462.000000  0    6366912.994  -2363411.565   1150386.000
10 0 59309  69582.000000  0    6105633.272  -2455449.024   2029923.001
10 0 59309  69702.000000  0    5736410.860  -2499034.811   2873714.040
10 0 59309  69822.000000  0    5266573.315  -2491582.426   3666901.520
10 0 59309  69942.000000  0    4705256.142  -2431548.167   4395528.693
10 0 59309  70062.000000  0    4063218.253  -2318485.863   5046787.179
10 0 59309  70182.000000  0    3352628.199  -2153079.171   5609243.911
10 0 59309  70302.000000  0    2586823.799  -1937149.159   6073039.426
10 0 59309  70422.000000  0    1780055.221  -1673637.618   6430055.185
10 0 59309  70542.000000  0     947215.201  -1366567.661   6674049.839
10 0 59309  70662.000000  0     103561.129  -1020981.552   6800762.508
10 0 59309  70782.000000  0    -735565.076   -642856.707   6807981.731
10 0 59309  70902.000000  0   -1555014.714   -239002.204   6695580.911
10 0 59309  71022.000000  0   -2340104.432    183063.473   6465520.400
10 0 59309  71142.000000  0   -3076878.495    615251.664   6121816.001
10 0 59309  71262.000000  0   -3752357.922   1049057.257   5670473.967
10 0 59309  71382.000000  0   -4354773.106   1475724.503   5119392.594
10 0 59309  71502.000000  0   -4873775.161   1886422.545   4478229.929
10 0 59309  71622.000000  0   -5300621.307   2272427.737   3758239.044
10 0 59309  71742.000000  0   -5628329.888   2625307.999   2972073.096
10 0 59309  71862.000000  0   -5851802.144   2937105.533   2133563.904
10 0 59309  71982.000000  0   -5967908.645   3200513.945   1257476.659
10 0 59309  72102.000000  0   -5975536.604   3409045.460    359243.572
10 0 59309  72222.000000  0   -5875594.914   3557182.437   -545315.986
10 0 59309  72342.000000  0   -5670979.140   3640509.987  -1440282.560
10 0 59309  72462.000000  0   -5366497.103   3655827.158  -2309926.234
10 0 59309  72582.000000  0   -4968754.061   3601232.000  -3138991.470
10 0 59309  72702.000000  0   -4486003.629   3476179.681  -3912969.288
10 0 59309  72822.000000  0   -3927968.058   3281512.054  -4618351.364
10 0 59309  72942.000000  0   -3305634.469   3019459.388  -5242862.038
10 0 59309  73062.000000  0   -2631031.913   2693614.420  -5775663.649
10 0 59309  73182.000000  0   -1916995.400   2308880.906  -6207535.531
10 0 59309  73302.000000  0   -1176918.665   1871396.117  -6531022.815
10 0 59309  73422.000000  0    -424504.140   1388430.548  -6740552.748
10 0 59309  73542.000000  0     326486.695    868266.681  -6832520.683
10 0 59309  73662.000000  0    1062478.284    320059.205  -6805345.705
10 0 59309  73782.000000  0    1770321.753   -246322.931  -6659496.152
10 0 59309  73902.000000  0    2437524.303   -820470.070  -6397480.974
10 0 59309  74022.000000  0    3052465.374  -1391618.089  -6023811.791
10 0 59309  74142.000000  0    3604597.039  -1948844.876  -5544932.919
10 0 59309  74262.000000  0    4084626.533  -2481275.421  -4969122.260
10 0 59309  74382.000000  0    4484677.376  -2978293.372  -4306358.781
10 0 59309  74502.000000  0    4798423.897  -3429752.649  -3568159.609
10 0 59309  74622.000000  0    5021198.877  -3826185.399  -2767389.123
10 0 59309  74742.000000  0    5150071.316  -4159002.844  -1918040.252
10 0 59309  74862.000000  0    5183890.403  -4420682.873  -1034991.579
10 0 59309  74982.000000  0    5123294.873  -4604940.728   -133744.618
10 0 59309  75102.000000  0    4970685.595  -4706877.812    769853.939
10 0 59309  75222.000000  0    4730162.128  -4723103.067   1659899.289
10 0 59309  75342.000000  0    4407424.302  -4651823.898   2520717.523
10 0 59309  75462.000000  0    4009642.386  -4492904.775   3337149.664
10 0 59309  75582.000000  0    3545298.723  -4247892.376   4094825.569
10 0 59309  75702.000000  0    3024004.103  -3920006.176   4780421.587
10 0 59309  75822.000000  0    2456294.992  -3514094.426   5381896.086
10 0 59309  75942.000000  0    1853416.854  -3036558.669   5888699.701
10 0 59309  76062.000000  0    1227097.129  -2495246.871   6291956.660
10 0 59309  76182.000000  0     589314.540  -1899319.589   6584613.866
10 0 59309  76302.000000  0     -47931.463  -1259091.666   6761557.915
10 0 59309  76422.000000  0    -672845.960   -585851.545   6819699.217
10 0 59309  76542.000000  0   -1274055.739    108338.787   6758022.228
10 0 59309  76662.000000  0   -1840815.529    810859.471   6577602.036
10 0 59309  76782.000000  0   -2363199.533   1508761.409   6281586.782
10 0 59309  76902.000000  0   -2832275.826   2189003.972   5875146.220
10 0 59309  77022.000000  0   -3240260.738   2838698.762   5365387.478
10 0 59309  77142.000000  0   -3580651.602   3445355.726   4761237.221
10 0 59309  77262.000000  0   -3848334.827   3997126.370   4073291.069
10 0 59309  77382.000000  0   -4039666.559   4483040.314   3313632.123
10 0 59309  77502.000000  0   -4152524.228   4893229.594   2495620.232
10 0 59309  77622.000000  0   -4186326.716   5219134.272   1633654.745
10 0 59309  77742.000000  0   -4142023.070   5453684.490    742917.057
10 0 59309  77862.000000  0   -4022050.956   5591455.209   -160902.686
10 0 59309  77982.000000  0   -3830264.346   5628789.804  -1061891.215
10 0 59309  78102.000000  0   -3571831.080   5563886.611  -1944203.073
10 0 59309  78222.000000  0   -3253103.633   5396846.709  -2792347.804
10 0 59309  78342.000000  0   -2881467.144   5129684.141  -3591467.330
10 0 59309  78462.000000  0   -2465170.333   4766296.368  -4327598.372
10 0 59309  78582.000000  0   -2013142.561   4312398.319  -4987914.006
10 0 59309  78702.000000  0   -1534802.710   3775423.422  -5560939.960
10 0 59309  78822.000000  0   -1039864.240   3164394.238  -6036746.139
10 0 59309  78942.000000  0    -538139.267   2489763.297  -6407109.204
10 0 59309  79062.000000  0     -39346.416   1763229.457  -6665642.640
10 0 59309  79182.000000  0     447072.869    997534.421  -6807896.156
10 0 59309  79302.000000  0     912128.512    206241.708  -6831424.754
10 0 59309  79422.000000  0    1347444.368   -596499.425  -6735826.183
10 0 59309  79542.000000  0    1745404.948  -1396201.490  -6522745.476
10 0 59309  79662.000000  0    2099285.486  -2178293.009  -6195849.592
10 0 59309  79782.000000  0    2403364.576  -2928377.552  -5760771.743
99
